[Satellite]
VERSION=1.1
NAME=STARLINK-5201
NICKNAME=STARLINK-5201
TLE1=1 54076U 22136AB  22321.58334491  .00063456  00000+0  11187-2 0  9996
TLE2=2 54076  53.2159  10.5443 0002013  45.5040 108.4133 15.49839606  1305
STATUS=0
